ONEWEB-0388             
1 49314C 21090AM  22354.26370785 -.00001415  00000-0 -35397-2 0  3544
2 49314  87.9229 198.3823 0001539  89.8090   3.1634 13.19726633    15
ONEWEB-0389             
1 50469C 21132A   22354.24983053 -.00000256  00000-0 -66069-3 0  3543
2 50469  87.9108 259.1362 0001219  58.3878  47.7938 13.17646006    12
ONEWEB-0390             
1 50470C 21132B   22354.25157822 -.00000409  00000-0 -10547-2 0  3542
2 50470  87.9110 259.1375 0001531  59.2139  47.9129 13.17646540    15
ONEWEB-0391             
1 50471C 21132C   22354.32864998 -.00002627  00000-0 -67748-2 0  3549
2 50471  87.9110 259.0935 0001390  63.9068  41.1286 13.17648367    12
ONEWEB-0392             
1 50472C 21132D   22354.29635831 -.00000125  00000-0 -32348-3 0  3548
2 50472  87.9119 259.1337 0001681  67.7418  38.5240 13.17651848    11
ONEWEB-0393             
1 50473C 21132E   22354.23143933  .00001518  00000-0  38860-2 0  3549
2 50473  87.9104 259.1380 0001897  64.5482  19.7182 13.18151302    16
ONEWEB-0394             
1 50474C 21132F   22354.26962221 -.01321044  00000-0 -62513-0 0  3544
2 50474  87.3721 230.4191 0003091 105.8183 319.1850 14.21130110    11
ONEWEB-0395             
1 50475C 21132G   22354.26544396  .00002247  00000-0  63483-2 0  3541
2 50475  87.8850 274.4280 0001711  65.4958  20.0472 13.11411863    18
ONEWEB-0396             
1 50476C 21132H   22354.30745785 -.01350862  00000-0 -55276-0 0  3543
2 50476  87.4129 230.4349 0001720  59.8173 116.1505 14.28728615    17
ONEWEB-0397             
1 50477C 21132J   22354.31650879 -.01391525  00000-0 -56634-0 0  3544
2 50477  87.3787 230.5565 0005373  93.1417 331.3421 14.29040052    19
ONEWEB-0398             
1 50478C 21132K   22354.38904350 -.00002538  00000-0 -71696-2 0  3547
2 50478  87.8868 274.3927 0001847  54.6257  47.7232 13.11424980    13
ONEWEB-0399             
1 50479C 21132L   22354.43730738 -.00003034  00000-0 -85707-2 0  3541
2 50479  87.8858 274.3963 0001749  91.9779 301.7491 13.11418539    10
ONEWEB-0400             
1 50480C 21132M   22354.26511988 -.01359214  00000-0 -62917-0 0  3549
2 50480  87.3952 230.3839 0003897  68.3618 121.9099 14.22327061    10
ONEWEB-0401             
1 50481C 21132N   22354.29392776 -.01375050  00000-0 -57168-0 0  3543
2 50481  87.4066 230.4537 0003253  88.8855 334.1905 14.27931858    14
ONEWEB-0402             
1 50482C 21132P   22354.38143933 -.01311983  00000-0 -51218-0 0  3548
2 50482  87.3943 230.4225 0004884 110.3717 314.4301 14.31092565    10
ONEWEB-0403             
1 50483C 21132Q   22354.35433285 -.01407868  00000-0 -66440-0 0  3549
2 50483  87.3854 230.3680 0001967 100.4988 323.9807 14.21363598    17
ONEWEB-0404             
1 50484C 21132R   22354.11543238  .00002441  00000-0  69619-2 0  3542
2 50484  87.8844 274.4192 0000950  76.2048 355.9133 13.10752408    13
ONEWEB-0405             
1 50485C 21132S   22354.40917081  .00001709  00000-0  31372-3 0  3548
2 50485  87.3043 233.2059 0003414  53.4130  12.7430 14.65877328    10
ONEWEB-0406             
1 50486C 21132T   22354.32899720 -.01389057  00000-0 -59076-0 0  3545
2 50486  87.3999 230.4353 0006618  54.2977 241.6653 14.26764757    12
ONEWEB-0407             
1 50487C 21132U   22354.27618470 -.01395789  00000-0 -71907-0 0  3547
2 50487  87.3932 230.3083 0005270  42.2253 307.4632 14.16693810    14
ONEWEB-0409             
1 50488C 21132V   22354.43213377 -.00002106  00000-0 -59488-2 0  3542
2 50488  87.8856 274.3533 0001214  61.8045  42.7333 13.11413105    11
ONEWEB-0412             
1 50489C 21132W   22354.34007360 -.01352680  00000-0 -64494-0 0  3543
2 50489  87.3754 230.4121 0004732  77.6581 204.1036 14.20762339    19
ONEWEB-0413             
1 50490C 21132X   22354.34149720 -.01406388  00000-0 -68784-0 0  3543
2 50490  87.4322 230.2501 0004812 103.6924 247.4505 14.19470526    16
ONEWEB-0414             
1 50491C 21132Y   22354.30015461 -.01349954  00000-0 -62538-0 0  3540
2 50491  87.3883 230.3870 0006142  63.9633   0.3885 14.22269502    12
ONEWEB-0417             
1 50492C 21132Z   22354.32446016 -.01353233  00000-0 -56788-0 0  3542
2 50492  87.4080 230.4368 0006244  56.0852 298.2587 14.27420589    11
ONEWEB-0418             
1 50493C 21132AA  22354.35640461 -.01375809  00000-0 -56660-0 0  3548
2 50493  87.3664 230.5725 0006076  84.1154 244.6545 14.28413652    10
ONEWEB-0419             
1 50494C 21132AB  22354.27830276 -.01373594  00000-0 -69015-0 0  3542
2 50494  87.4156 230.2566 0006116  38.2877 137.0957 14.18002736    13
ONEWEB-0420             
1 50495C 21132AC  22354.40817543 -.01341898  00000-0 -69315-0 0  3545
2 50495  87.4651 230.0822 0005040 114.7811 254.4928 14.16497683    19
ONEWEB-0421             
1 50496C 21132AD  22354.26164767 -.01285477  00000-0 -54529-0 0  3544
2 50496  87.4825 230.1364 0003296 128.3878 297.3586 14.26802830    11
ONEWEB-0424             
1 50497C 21132AE  22354.20848794 -.01392921  00000-0 -57369-0 0  3546
2 50497  87.3467 230.6797 0005550  71.3634 151.4947 14.28428886    18
ONEWEB-0426             
1 50498C 21132AF  22354.37134674 -.01348720  00000-0 -61055-0 0  3545
2 50498  87.4352 230.2720 0002016 127.3304 273.4077 14.23487620    10
ONEWEB-0427             
1 50499C 21132AG  22354.32376572 -.01321040  00000-0 -60733-0 0  3544
2 50499  87.4795 230.1068 0003014  53.8507 118.7008 14.22649290    10
ONEWEB-0429             
1 50500C 21132AH  22354.32657822 -.01359427  00000-0 -68500-0 0  3547
2 50500  87.4349 230.2252 0005145  92.5971 166.4275 14.17838794    15
ONEWEB-0430             
1 50501C 21132AJ  22354.32064072 -.01365503  00000-0 -55106-0 0  3547
2 50501  87.3699 230.5756 0005131  53.7147 244.1974 14.29449326    16
ONEWEB-0432             
1 50502C 21132AK  22354.23662453 -.01353238  00000-0 -67758-0 0  3543
2 50502  87.4361 230.2035 0005813 107.8283 228.8400 14.18167198    15
ONEWEB-0440             
1 50503C 21132AL  22354.34705276 -.01409874  00000-0 -73036-0 0  3541
2 50503  87.4046 230.2603 0004743 100.7138 228.0838 14.16413908    17
ONEWEB-0450             
1 50504C 21132AM  22354.36091850 -.01370407  00000-0 -58815-0 0  3547
2 50504  87.3676 230.5205 0003589  69.4274 281.7547 14.26283038    19
ONEWEB-0410             
1 51622C 22012A   22354.41057127 -.00002933  00000-0 -75611-2 0  3542
2 51622  87.9152 259.1133 0000117  25.6889  63.6421 13.17669393    12
ONEWEB-0411             
1 51623C 22012B   22354.40087220 -.00001686  00000-0 -48349-2 0  3541
2 51623  87.8757 289.6444 0001556  59.5478  47.5168 13.10367019    16
ONEWEB-0415             
1 51624C 22012C   22354.24875414  .00002878  00000-0  82549-2 0  3546
2 51624  87.8744 289.6537 0002052  62.7305  61.8051 13.10362724    11
ONEWEB-0416             
1 51625C 22012D   22354.03035137 -.00003347  00000-0 -96000-2 0  3545
2 51625  87.8741 289.6785 0001994  78.6723  44.7621 13.10371961    14
ONEWEB-0422             
1 51626C 22012E   22354.37620785 -.01380920  00000-0 -34735+1 0  3543
2 51626  87.9174 259.1677 0001463 115.1363 136.0592 13.20727846    16
ONEWEB-0423             
1 51627C 22012F   22354.41194859 -.00002896  00000-0 -74686-2 0  3540
2 51627  87.9094 259.1176 0001567  68.8071  19.6327 13.17658758    10
ONEWEB-0425             
1 51628C 22012G   22354.20779351  .00002141  00000-0  61418-2 0  3544
2 51628  87.8743 289.6449 0001516  96.4277  99.5658 13.10371628    16
ONEWEB-0428             
1 51629C 22012H   22354.02065229 -.00003014  00000-0 -86451-2 0  3543
2 51629  87.8794 289.6755 0002346  85.3134  36.5287 13.10369172    14
ONEWEB-0431             
1 51630C 22012J   22354.42690230 -.00002767  00000-0 -79370-2 0  3541
2 51630  87.8801 289.6074 0002579  63.5278  41.3862 13.10380188    17
ONEWEB-0434             
1 51631C 22012K   22354.34463379 -.00000873  00000-0 -25031-2 0  3546
2 51631  87.8815 289.6129 0002301  80.8075  25.5681 13.10378543    19
ONEWEB-0435             
1 51632C 22012L   22354.03627729 -.00002743  00000-0 -78672-2 0  3541
2 51632  87.8816 289.6724 0002552  83.1738 325.4079 13.10383957    10
ONEWEB-0436             
1 51633C 22012M   22354.40676340 -.00002952  00000-0 -76110-2 0  3543
2 51633  87.9151 259.1087 0001954  85.2573 353.3384 13.17656547    17
ONEWEB-0438             
1 51634C 22012N   22354.41333748 -.00002701  00000-0 -77477-2 0  3546
2 51634  87.8803 289.5973 0001648  84.2480  22.8772 13.10373750    12
ONEWEB-0439             
1 51635C 22012P   22354.41613840 -.00002817  00000-0 -80802-2 0  3545
2 51635  87.8783 289.6140 0001887  78.5834  27.0413 13.10376538    17
ONEWEB-0442             
1 51636C 22012Q   22354.39599951 -.00002868  00000-0 -73939-2 0  3548
2 51636  87.9118 259.1325 0001059  33.6731  23.3019 13.17664879    13
ONEWEB-0443             
1 51637C 22012R   22354.39253887 -.00002994  00000-0 -77199-2 0  3546
2 51637  87.9152 259.1005 0002128  96.8488 244.8947 13.17651028    17
ONEWEB-0444             
1 51638C 22012S   22354.25744627  .00005489  00000-0  15743-1 0  3545
2 51638  87.8801 289.6320 0002066  83.9264  37.4643 13.10367076    15
ONEWEB-0445             
1 51639C 22012T   22354.42863840 -.00002705  00000-0 -77590-2 0  3543
2 51639  87.8799 289.6260 0001400  59.8508  45.7940 13.10381432    13
ONEWEB-0446             
1 51640C 22012U   22354.02687914 -.00003279  00000-0 -94069-2 0  3544
2 51640  87.8751 289.6955 0001888  69.0829  52.7053 13.10367826    17
ONEWEB-0448             
1 51641C 22012V   22354.25505044  .00001896  00000-0  54379-2 0  3544
2 51641  87.8751 289.6440 0002057  79.5294  16.0212 13.10370617    10
ONEWEB-0449             
1 51642C 22012W   22354.47619629 -.00003012  00000-0 -86403-2 0  3541
2 51642  87.8807 289.5855 0001562  82.7034 313.4493 13.10371197    19
ONEWEB-0451             
1 51643C 22012X   22354.40500414 -.00002940  00000-0 -75815-2 0  3540
2 51643  87.9116 259.1551 0001813  92.7246 352.3329 13.17652359    14
